NILESAT 201             
1 36830U 10037A   23300.54316676 -.00000061  00000+0  00000+0 0  9993
2 36830   0.0253 171.2426 0005491  34.0317  18.9313  1.00271049 48700
RASCOM-QAF 1R           
1 36831U 10037B   23300.29336795  .00000015  00000+0  00000+0 0  9998
2 36831   0.0421 100.5675 0006806 125.8958 277.4782  1.00271546 48636
AEHF-1 (USA 214)        
1 36868U 10039A   23299.14731921  .00000024  00000+0  00000+0 0  9991
2 36868   5.7837  80.2766 0005199  97.0698 273.9449  1.00270370 43987
XM-5                    
1 37185U 10053A   23300.57960899 -.00000026  00000+0  00000+0 0  9991
2 37185   0.0139 266.9291 0000179 294.6847 287.5623  1.00272699 47821
BSAT-3B                 
1 37207U 10056B   23299.85465906 -.00000354  00000+0  00000+0 0  9990
2 37207   0.0215 348.9033 0004002 283.7903 179.7784  1.00267089 42458
BEIDOU-2 G4             
1 37210U 10057A   23300.59547642 -.00000114  00000+0  00000+0 0  9991
2 37210   1.2960  63.1477 0007690 168.8002 178.1548  1.00271256 47625
SKYTERRA 1              
1 37218U 10061A   23300.43315360 -.00000119  00000+0  00000+0 0  9992
2 37218   3.1829  45.1214 0004655 199.2626 205.7874  1.00272013 47536
HYLAS 1                 
1 37237U 10065A   23300.59552756 -.00000115  00000+0  00000+0 0  9992
2 37237   3.1748  84.6043 0003278 148.2706 176.8534  1.00271445 47313
INTELSAT 17 (IS-17)     
1 37238U 10065B   23300.58493273 -.00000005  00000+0  00000+0 0  9998
2 37238   0.0196 266.9003 0002431 303.1823 102.2014  1.00270997 43571
BEIDOU-2 IGSO-2         
1 37256U 10068A   23300.57738988 -.00000218  00000+0  00000+0 0  9991
2 37256  49.3147 283.6598 0031487 214.1993 213.7618  1.00266196 47130
EUTELSAT KA-SAT 9A      
1 37258U 10069A   23300.29458626  .00000058  00000+0  00000+0 0  9992
2 37258   0.0536 286.7774 0003363 270.1863 313.5092  1.00270753 34335
HISPASAT 30W-5          
1 37264U 10070A   23300.28684125 -.00000219  00000+0  00000+0 0  9995
2 37264   0.0647  95.3340 0005361  98.0779 275.2719  1.00270841 43520
KOREASAT 6              
1 37265U 10070B   23300.54138993 -.00000365  00000+0  00000+0 0  9994
2 37265   0.0498  85.3827 0003900 162.2331  98.9234  1.00267914 47106
BEIDOU-2 IGSO-3         
1 37384U 11013A   23300.29977017 -.00000206  00000+0  00000+0 0  9998
2 37384  61.0164  49.3827 0028260 178.3791  23.3323  1.00267728 45998
INTELSAT NEW DAWN       
1 37392U 11016A   23299.07202104  .00000150  00000+0  00000+0 0  9998
2 37392   0.0150 160.3902 0001752  71.5330 221.0156  1.00272318 43601
YAHSAT 1A               
1 37393U 11016B   23299.92855802  .00000097  00000+0  00000+0 0  9992
2 37393   0.0488  86.4786 0002326 139.1848 196.1406  1.00271921 32738
SBIRS GEO-1 (USA 230)   
1 37481U 11019A   23299.85587531 -.00000007  00000+0  00000+0 0  9998
2 37481   2.5654  43.6977 0002042 174.8315 190.2754  1.00272236 45730
TELSTAR 14R             
1 37602U 11021A   23300.37420921 -.00000283  00000+0  00000+0 0  9991
2 37602   0.0030 199.0974 0001586  72.0159 196.1105  1.00272054 46178
GSAT-8                  
1 37605U 11022A   23299.84707656  .00000081  00000+0  00000+0 0  9992
2 37605   0.0183 237.3592 0008373  14.8579 142.7574  1.00269695 45570
ST-2                    
1 37606U 11022B   23299.87565582 -.00000216  00000+0  00000+0 0  9997
2 37606   0.0228 132.0728 0001347 109.1454 197.0484  1.00270964 45605
CHINASAT 10 (ZX 10)     
1 37677U 11026A   23300.56537742 -.00000356  00000+0  00000+0 0  9990
2 37677   0.0277 269.3327 0002873 285.8293 154.5764  1.00270226 45334
TIANLIAN 1-02           
1 37737U 11032A   23300.59958001 -.00000051  00000+0  00000+0 0  9994
2 37737   2.8236  72.8256 0080027   6.8257 338.9246  1.00272303 34555
SES-3                   
1 37748U 11035A   23300.39095514 -.00000105  00000+0  00000+0 0  9998
2 37748   0.0685  72.7092 0002938 151.4573 209.0879  1.00271065 44921
KAZSAT-2                
1 37749U 11035B   23300.55784397 -.00000202  00000+0  00000+0 0  9999
2 37749   0.0231 295.3999 0000179 321.3999  66.2288  1.00271801 43725
BEIDOU-2 IGSO-4         
1 37763U 11038A   23300.38212194 -.00000018  00000+0  00000+0 0  9995
2 37763  54.5068 174.2407 0112056 227.3459 226.0488  1.00262928 44983
ASTRA 1N                
1 37775U 11041A   23300.29667481  .00000116  00000+0  00000+0 0  9993
2 37775   0.0804  54.2344 0000363  97.7881   9.4070  1.00269425 34867
BSAT-3C (JCSAT-110R)    
1 37776U 11041B   23300.56539626 -.00000354  00000+0  00000+0 0  9998
2 37776   0.0461  51.6722 0001052 238.7071  58.7713  1.00268342 40812
PAKSAT-1R               
1 37779U 11042A   23299.89120022  .00000150  00000+0  00000+0 0  9994
2 37779   0.0242  95.3089 0001082 202.2481  96.1765  1.00271167 44802
SES-2                   
1 37809U 11049A   23300.39994109 -.00000199  00000+0  00000+0 0  9992
2 37809   0.0146 313.8307 0002563 261.6015 237.0778  1.00271351 44307
ARABSAT-5C              
1 37810U 11049B   23299.94424417  .00000119  00000+0  00000+0 0  9993
2 37810   0.0614  23.1849 0007027 180.4709 191.3458  1.00273026 44385
EUTELSAT 7 WEST A       
1 37816U 11051A   23300.29136642 -.00000063  00000+0  00000+0 0  9992
2 37816   0.0937  51.1662 0007025 160.7118 281.1225  1.00271736 44236
QUETZSAT 1              
1 37826U 11054A   23300.40517498 -.00000245  00000+0  00000+0 0  9993
2 37826   0.0085 293.7172 0002533 301.7369 228.9539  1.00274935 40221
INTELSAT 18 (IS-18)     
1 37834U 11056A   23300.60786750  .00000049  00000+0  00000+0 0  9996
2 37834   0.0164 246.5887 0001978 326.0991 221.8345  1.00269728 44146
EUTELSAT 16A            
1 37836U 11057A   23300.29589161  .00000100  00000+0  00000+0 0  9999
2 37836   0.0723  16.7132 0005286 203.9593 297.2669  1.00272523 36308
VIASAT-1                
1 37843U 11059A   23300.57960904 -.00000027  00000+0  00000+0 0  9997
2 37843   0.0193 248.8530 0002170 328.3782 272.0084  1.00272378 37668
ASIASAT 7               
1 37933U 11069A   23300.53458341 -.00000337  00000+0  00000+0 0  9995
2 37933   0.0128 237.3009 0000776 250.6671 205.6552  1.00270270 35191
BEIDOU-2 IGSO-5         
1 37948U 11073A   23300.37213469 -.00000163  00000+0  00000+0 0  9995
2 37948  49.4409 283.3328 0094453 221.1386 119.4113  1.00260115 43463
LUCH-5A                 
1 37951U 11074B   23300.59947554 -.00000046  00000+0  00000+0 0  9993
2 37951   6.2804  88.7847 0004109 111.4905 218.1891  1.00272547 43380
NIGCOMSAT 1R            
1 38014U 11077A   23299.87140080  .00000140  00000+0  00000+0 0  9998
2 38014   0.0608  68.6562 0003930 232.3626  90.1708  1.00272364 43281
FENGYUN 2F              
1 38049U 12002A   23300.53836256 -.00000357  00000+0  00000+0 0  9999
2 38049   5.0131  75.4125 0001969  65.6213 200.2105  1.00271490 43212
WGS F4 (USA 233)        
1 38070U 12003A   23299.95929206 -.00000218  00000+0  00000+0 0  9991
2 38070   0.0174 199.8518 0000412  86.8560 182.1350  1.00263429 34478
SES-4                   
1 38087U 12007A   23299.35704375 -.00000171  00000+0  00000+0 0  9993
2 38087   0.0118  23.2866 0002742 199.9850 277.7672  1.00281488 42568
BEIDOU-2 G5             
1 38091U 12008A   23299.85046406  .00000055  00000+0  00000+0 0  9998
2 38091   1.8348  69.2208 0006837 186.1119 144.5467  1.00267524 42807
MUOS-1                  
1 38093U 12009A   23300.39255433 -.00000129  00000+0  00000+0 0  9998
2 38093   3.6355  42.0293 0050369   0.3982  34.3966  1.00273385 42783
INTELSAT 22 (IS-22)     
1 38098U 12011A   23299.96160738 -.00000063  00000+0  00000+0 0  9996
2 38098   0.0268 109.7049 0002951 107.7897 235.8878  1.00271909 42143
APSTAR 7                
1 38107U 12013A   23299.96160738 -.00000106  00000+0  00000+0 0  9997
2 38107   0.0385  83.0449 0003159 148.7206 226.0175  1.00271278 42132
YAHSAT 1B               
1 38245U 12016A   23299.87244507  .00000122  00000+0  00000+0 0  9997
2 38245   0.0532  82.8421 0001674 159.3063 154.5073  1.00272282 35922
AEHF-2 (USA 235)        
1 38254U 12019A   23300.41003046 -.00000161  00000+0  00000+0 0  9998
2 38254   4.4287  62.0983 0004496 171.6257 215.2281  1.00272906 41192
JCSAT-13                
1 38331U 12023A   23299.84910722 -.00000361  00000+0  00000+0 0  9993
2 38331   0.0336  98.7181 0002516 115.9205 250.0113  1.00269124 41870
VINASAT-2               
1 38332U 12023B   23299.82892693 -.00000333  00000+0  00000+0 0  9997
2 38332   0.0166 326.7018 0002117 251.3208 247.1923  1.00269429 36991
NIMIQ 6                 
1 38342U 12026A   23300.39769378 -.00000177  00000+0  00000+0 0  9995
2 38342   0.0177 105.8657 0003100 110.5206 231.1776  1.00270067 40754
CHINASAT 2A (ZX 2A)     
1 38352U 12028A   23300.59661414 -.00000297  00000+0  00000+0 0  9995
2 38352   0.0528  49.2135 0002089 178.3278 121.2546  1.00270594 41719
INTELSAT 19 (IS-19)     
1 38356U 12030A   23300.59875759 -.00000060  00000+0  00000+0 0  9999
2 38356   0.0147 267.0525 0003209 311.3088 198.8760  1.00271484 40778
ECHOSTAR 17             
1 38551U 12035A   23300.40448247 -.00000078  00000+0  00000+0 0  9998
2 38551   0.0178 229.1192 0002253 351.0529 213.8353  1.00269401 41398
METEOSAT-10 (MSG-3)     
1 38552U 12035B   23300.29275880 -.00000012  00000+0  00000+0 0  9995
2 38552   2.4493  58.2580 0000541 208.4812 233.5871  1.00272963 41194
SES-5                   
1 38652U 12036A   23299.79229722  .00000029  00000+0  00000+0 0  9990
2 38652   0.0454 298.4687 0002020 275.9569 110.6990  1.00270624 34814
TIANLIAN 1-03           
1 38730U 12040A   23299.99129057  .00000123  00000+0  00000+0 0  9999
2 38730   3.2779  85.2831 0003711  50.1886 276.8840  1.00269809 39066
INTELSAT 20 (IS-20)     
1 38740U 12043A   23299.87662215 -.00000030  00000+0  00000+0 0  9996
2 38740   0.0254 139.2092 0002263  54.9339 224.9622  1.00275490 41074
HYLAS 2                 
1 38741U 12043B   23299.94424417  .00000150  00000+0  00000+0 0  9997
2 38741   0.0546  80.5827 0001773 144.0773 181.3751  1.00272610 41093
